BANDWAGON-2 OBJECT D    
1 62380U 24247D   26068.52261193  .00011259  00000+0  40119-3 0  9994
2 62380  44.9954 115.6710 0003488 351.1453   8.9368 15.29076102 67732
STARLINK-35407          
1 66334U 25253R   26068.46894423  .00025768  00000+0  94236-3 0  9995
2 66334  42.9964 213.5000 0001637 213.2147 146.8603 15.27588831 20217
